PHASE 3B (AO-10)        
1 14129U 83058B   21005.79784508  .00000411  00000-0  00000-0 0  9993
2 14129  25.7619 181.8418 6070844 298.7938  13.7724  2.05866333254578
UOSAT 2 (UO-11)         
1 14781U 84021B   21006.08438916  .00000123  00000-0  21175-4 0  9990
2 14781  97.5895  13.9622 0007013 252.5022 107.5426 14.83234610982868
LUSAT (LO-19)           
1 20442U 90005G   21005.86607754  .00000006  00000-0  18608-4 0  9990
2 20442  98.7201 320.0549 0010689 280.7167  79.2813 14.32972709617546
EYESAT A (AO-27)        
1 22825U 93061C   21005.92150136 -.00000004  00000-0  16347-4 0  9993
2 22825  98.9243  19.4847 0009042 142.5380 217.6433 14.30102813422756
ITAMSAT (IO-26)         
1 22826U 93061D   21005.58055688 -.00000007  00000-0  15347-4 0  9994
2 22826  98.9184  19.0600 0009737 132.3573 227.8435 14.30440215422943
RADIO ROSTO (RS-15)     
1 23439U 94085A   21005.95665724 -.00000037  00000-0  15882-3 0  9997
2 23439  64.8167 278.7650 0155577   4.4346 355.7917 11.27569950 72013
JAS-2 (FO-29)           
1 24278U 96046B   21006.21692391 -.00000060  00000-0 -24161-4 0  9996
2 24278  98.5860  95.5692 0349967 209.7291 148.3550 13.53101797204554
TECHSAT 1B (GO-32)      
1 25397U 98043D   21005.92088543  .00000002  00000-0  20391-4 0  9998
2 25397  98.7530 312.0888 0001423 147.2829 212.8438 14.23698723168360
ISS (ZARYA)             
1 25544U 98067A   21006.23537663  .00000270  00000-0  12925-4 0  9996
2 25544  51.6456  63.7832 0000679 184.4325 288.6150 15.49255209263493
PCSAT (NO-44)           
1 26931U 01043C   21005.63469568 -.00000013  00000-0  26760-4 0  9994
2 26931  67.0519 340.6327 0007430 272.6769  87.3482 14.30601643  5958
SAUDISAT 1C (SO-50)     
1 27607U 02058C   21005.66037894  .00000037  00000-0  25646-4 0  9995
2 27607  64.5556 116.1270 0029456  94.8297 265.6170 14.75699725970556
CUTE-1 (CO-55)          
1 27844U 03031E   21005.76010084  .00000046  00000-0  40126-4 0  9993
2 27844  98.6816  16.4338 0009767 183.9987 176.1114 14.22280282908856
CUBESAT XI-IV (CO-57)   
1 27848U 03031J   21005.70511033  .00000036  00000-0  36043-4 0  9993
2 27848  98.6876  16.9474 0009432 197.1389 162.9471 14.21861383908680
MOZHAYETS 4 (RS-22)     
1 27939U 03042A   21006.04464888  .00000088  00000-0  24381-4 0  9998
2 27939  98.1162 144.5335 0014112  75.9937 284.2818 14.66930014923712
CUBESAT XI-V            
1 28895U 05043F   21005.88425967  .00000155  00000-0  38622-4 0  9997
2 28895  98.0351 142.9259 0016748   7.2474 352.8967 14.63850591810227
CUTE-1.7+APD II (CO-65) 
1 32785U 08021C   21005.80461275  .00000298  00000-0  37541-4 0  9990
2 32785  97.5934 351.1532 0012983 175.7262 184.4069 14.88605597687979
DELFI-C3 (DO-64)        
1 32789U 08021G   21005.65248127  .00001993  00000-0  13204-3 0  9998
2 32789  97.3961  47.1813 0011388 349.5745  10.5246 15.08362729692286
SEEDS II (CO-66)        
1 32791U 08021J   21005.92274220  .00000597  00000-0  65331-4 0  9992
2 32791  97.5564 357.3158 0014050 142.7105 217.5092 14.91238840688639
YUBILEINY (RS-30)       
1 32953U 08025A   21006.13460259  .00000028  00000-0  12906-3 0  9997
2 32953  82.5028 151.8826 0018816 332.6332  27.3753 12.43099437572818
KKS-1 (KISEKI)          
1 33499U 09002H   21005.86752316  .00000127  00000-0  26607-4 0  9990
2 33499  98.2899 231.9778 0008705 192.1401 167.9599 14.75603699642435
SWISSCUBE               
1 35932U 09051B   21005.81656379  .00000154  00000-0  45714-4 0  9995
2 35932  98.6065 200.6382 0006856 220.8851 139.1832 14.56472999599286
BEESAT-1                
1 35933U 09051C   21005.58296393  .00000122  00000-0  38447-4 0  9996
2 35933  98.6044 202.2549 0004871 234.5523 125.5219 14.56538676599328
ITUPSAT1                
1 35935U 09051E   21005.83416529  .00000094  00000-0  32836-4 0  9995
2 35935  98.6149 202.6827 0007192 235.6876 124.3640 14.55677164599118
XIWANG-1 (HOPE-1)       
1 36122U 09072B   21005.72878309 -.00000056  00000-0 -36124-4 0  9997
2 36122 100.1117 353.2791 0008142 116.5239 243.6692 13.16358154531489
JUGNU                   
1 37839U 11058B   21005.73378891  .00000307  00000-0  22079-4 0  9993
2 37839  19.9603 136.0346 0018978  98.0536  38.1661 14.12699425477429
SRMSAT                  
1 37841U 11058D   21005.73788524  .00000292  00000-0  15433-4 0  9993
2 37841  19.9703 204.5285 0011833 306.3518 135.8125 14.10682315476724
M-CUBED & EXP-1 PRIME   
1 37855U 11061F   21005.86499958  .00002439  00000-0  12525-3 0  9999
2 37855 101.7263 204.9411 0168740 193.9888 165.6620 15.07046244501682
STRAND-1                
1 39090U 13009E   21005.61441627  .00000023  00000-0  23215-4 0  9995
2 39090  98.4370 211.5291 0009954  48.1797 312.0237 14.35162481411681
SOMP                    
1 39134U 13015E   21006.17032095  .00002289  00000-0  10899-3 0  9997
2 39134  64.8648 339.9022 0014037 219.1728 140.8385 15.21840612426899
BEESAT-3                
1 39135U 13015F   21005.70407686  .00001751  00000-0  93005-4 0  9992
2 39135  64.8670   7.9980 0019886 210.1089 149.8896 15.18798035425924
BEESAT-2                
1 39136U 13015G   21006.16182852  .00001551  00000-0  84550-4 0  9992
2 39136  64.8742  12.2557 0030121 264.0174  95.7520 15.18180508426274
ZACUBE-1 (TSHEPISOSAT)  
1 39417U 13066B   21005.94289832  .00000386  00000-0  54482-4 0  9997
2 39417  97.5782 358.8456 0058129 335.3290  24.5145 14.81402494385018
GOMX-1                  
1 39430U 13066Q   21006.19460791  .00000253  00000-0  55211-4 0  9999
2 39430  97.8072 298.6369 0149413 266.0208  92.3912 14.59518305379379
CUBEBUG-2 (LO-74)       
1 39440U 13066AA  21005.90813950  .00000394  00000-0  61154-4 0  9996
2 39440  97.6554 343.4918 0081017  43.7460 317.0132 14.76133872383644
FUNCUBE-1 (AO-73)       
1 39444U 13066AE  21005.95760970  .00000479  00000-0  64731-4 0  9996
2 39444  97.5706   1.1825 0057003 326.3929  33.3674 14.82285607383368
UWE-3                   
1 39446U 13066AG  21005.88848046  .00000411  00000-0  60660-4 0  9994
2 39446  97.6186 350.5557 0070109  10.6716 349.5964 14.78669826382485
SPROUT                  
1 39770U 14029E   21006.24281090  .00000929  00000-0  10701-3 0  9999
2 39770  97.9077 117.8341 0009537  27.6883 332.4793 14.88110860359218
UNISAT-6                
1 40012U 14033C   21006.15184391  .00000243  00000-0  43021-4 0  9992
2 40012  97.6871 216.9620 0059445  65.7366 295.0038 14.74221962352288
DUCHIFAT-1              
1 40021U 14033M   21006.08714094  .00000672  00000-0  73544-4 0  9992
2 40021  97.9594 304.7263 0012568 346.1811  13.9061 14.91134542356089
QB50P1                  
1 40025U 14033R   21005.83480743  .00000385  00000-0  46637-4 0  9993
2 40025  97.9255 296.1957 0012430   0.2852 359.8370 14.89297681355212
NUDT-PHONESAT           
1 40900U 15049B   21006.13209740  .00003100  00000-0  12599-3 0  9990
2 40900  97.4260  21.4009 0012181 359.6658  74.1852 15.25249296294078
ZDPS 2A                 
1 40901U 15049C   21006.15975183  .00001501  00000-0  75057-4 0  9996
2 40901  97.4624  15.2620 0014148  33.2856  31.6732 15.18901433293336
ZDPS 2B                 
1 40902U 15049D   21006.14167418  .00001711  00000-0  85056-4 0  9993
2 40902  97.4642  12.5260 0014186  31.0385  33.4709 15.18914665293304
XW-2A                   
1 40903U 15049E   21006.16117648  .00002621  00000-0  59001-4 0  9998
2 40903  97.2609  61.0375 0011055 243.2243 201.3937 15.44163816297748
KAITUO 1A               
1 40904U 15049F   21006.17864628  .00000669  00000-0  38250-4 0  9990
2 40904  97.4824  10.2353 0015670  45.5181  16.9379 15.15952503292958
2015-049G               
1 40905U 15049G   21006.15356109  .00000286  00000-0  18947-4 0  9995
2 40905  97.4936   7.3348 0016730  43.3023  15.2489 15.14778329292767
XW-2C                   
1 40906U 15049H   21006.11409487  .00000979  00000-0  53733-4 0  9991
2 40906  97.4824  10.5744 0015592  36.8568  31.3020 15.16411511292967
XW-2D                   
1 40907U 15049J   21006.13969362  .00000960  00000-0  52342-4 0  9992
2 40907  97.4810  10.3462 0014976  33.2673  31.1394 15.16687426292996
LILACSAT-2              
1 40908U 15049K   21006.12548988  .00000689  00000-0  41216-4 0  9995
2 40908  97.4986   8.4060 0016960  45.5049  17.2528 15.14245024292661
XW-2F                   
1 40910U 15049M   21006.10263791  .00001390  00000-0  70585-4 0  9993
2 40910  97.4705  13.1759 0015080  21.7251  51.2155 15.18490936293083
XW-2B                   
1 40911U 15049N   21006.13359936  .00001076  00000-0  58397-4 0  9992
2 40911  97.4818  11.0361 0014917  34.6033  28.6562 15.16609697292885
KAITUO 1B               
1 40912U 15049P   21006.16773221  .00001588  00000-0  74686-4 0  9990
2 40912  97.4469  17.5524 0014485 356.9415  67.2531 15.20957370293520
TIANWANG 1C (TW-1C)     
1 40926U 15051B   21006.20907505  .00109147  00000-0  44147-3 0  9995
2 40926  97.0513  66.8323 0002450  46.0282 351.1090 15.86023277298884
TIANWANG 1A (TW-1A)     
1 40928U 15051D   21006.15785865  .00003740  00000-0  83236-4 0  9999
2 40928  97.0923  35.0115 0010725 157.5299 276.7245 15.44192359296635
LAPAN-A2                
1 40931U 15052B   21003.47463961  .00000754  00000-0  15838-4 0  9991
2 40931   5.9984 348.9566 0013073 231.4372 128.4639 14.76657788284872
E-ST@R-II               
1 41459U 16025D   21006.01029984  .00002863  00000-0  14523-3 0  9996
2 41459  98.1210 132.8796 0161709 249.5773 108.8005 15.07211907257945
AAUSAT 4                
1 41460U 16025E   21006.01780471  .00004222  00000-0  20384-3 0  9996
2 41460  98.1203 136.0016 0149981 235.8228 122.8681 15.09880797258196
NUSAT-1 (FRESCO)        
1 41557U 16033B   21006.16587063  .00001755  00000-0  65359-4 0  9990
2 41557  97.3985 101.1029 0014913  91.0089 335.4755 15.28735754256736
BEESAT-4                
1 41619U 16040W   21005.87724542  .00002153  00000-0  89608-4 0  9995
2 41619  97.2944  66.3894 0010891 177.3325 182.7973 15.24759403240239
